[{"OBJECT_NAME":"YAOGAN-33 02","OBJECT_ID":"2022-106A","EPOCH":"2026-03-10T00:11:39.197184","MEAN_MOTION":14.58686207,"ECCENTRICITY":0.00031698,"INCLINATION":98.185,"RA_OF_ASC_NODE":78.3458,"ARG_OF_PERICENTER":101.2556,"MEAN_ANOMALY":258.9,"EPHEMERIS_TYPE":0,"CLASSIFICATION_TYPE":"U","NORAD_CAT_ID":53698,"ELEMENT_SET_NO":999,"REV_AT_EPOCH":18726,"BSTAR":6.2152918e-5,"MEAN_MOTION_DOT":2.44e-6,"MEAN_MOTION_DDOT":0},{"OBJECT_NAME":"FENGYUN 1C DEB","OBJECT_ID":"1999-025AVY","EPOCH":"2026-03-09T17:19:50.500128","MEAN_MOTION":14.49573424,"ECCENTRICITY":0.00340038,"INCLINATION":99.0424,"RA_OF_ASC_NODE":353.7121,"ARG_OF_PERICENTER":262.2454,"MEAN_ANOMALY":97.4876,"EPHEMERIS_TYPE":0,"CLASSIFICATION_TYPE":"U","NORAD_CAT_ID":30838,"ELEMENT_SET_NO":999,"REV_AT_EPOCH":98573,"BSTAR":0.0022173382,"MEAN_MOTION_DOT":8.531e-5,"MEAN_MOTION_DDOT":0}]
